ATLAS CENTAUR 2         
1 00694U 63047A   26032.34988469  .00001280  00000+0  14550-3 0  9991
2 00694  30.3541  38.7092 0548138 120.0677 245.5431 14.11963836126485
THOR AGENA D R/B        
1 00733U 64002A   26032.93753412  .00000246  00000+0  10490-3 0  9990
2 00733  99.1226  44.3288 0032966   4.3670 355.7794 14.33996517233173
SL-3 R/B                
1 00877U 64053B   26032.55819912  .00000340  00000+0  90156-4 0  9994
2 00877  65.0764  77.1640 0077871 303.7164  55.6530 14.61328549261513
SL-8 R/B                
1 02802U 67045B   26032.52026422  .00000267  00000+0  81512-4 0  9995
2 02802  74.0098  55.6362 0062896  71.2384 289.5584 14.45587751 83790
SL-8 R/B                
1 03230U 68040B   26032.96861371  .00003156  00000+0  23617-3 0  9996
2 03230  74.0306  26.6641 0025591 220.4137 139.5151 15.02970617 84641
OAO 2                   
1 03597U 68110A   26032.63329094  .00000320  00000+0  91393-4 0  9992
2 03597  34.9931 106.5292 0006137 269.5788  90.4199 14.47284013 13877
ISIS 1                  
1 03669U 69009A   26032.87128620  .00000357  00000+0  24373-3 0  9991
2 03669  88.4549 159.2114 1707870 161.4335 205.7783 11.30396085344481
SERT 2                  
1 04327U 70009A   26032.83742515  .00000002  00000+0  58858-4 0  9999
2 04327  99.2713 337.9020 0003961 255.8466 165.2128 13.58725708775020
SL-3 R/B                
1 05118U 71028B   26032.92002683  .00031468  00000+0  41072-3 0  9994
2 05118  81.2367  96.1180 0017807  59.7681 300.5331 15.58323591983094
ASTEX 1                 
1 05560U 71089A   26032.81750459  .00000589  00000+0  15008-3 0  9991
2 05560  92.7155 140.1527 0014870 197.9380 162.1303 14.50723788857106
SL-8 R/B                
1 05730U 71119B   26032.94962837  .00008331  00000+0  43355-3 0  9992
2 05730  73.8850 242.4742 0554659 216.4225 139.7982 14.36801961650356
OAO 3 (COPERNICUS)      
1 06153U 72065A   26032.71260838  .00000433  00000+0  93160-4 0  9995
2 06153  35.0048 142.2844 0007035 230.5202 278.9628 14.59963569840934
