CCSDS_OMM_VERS = 2.0
CREATION_DATE  = 
ORIGINATOR     = 

OBJECT_NAME    = ATLAS CENTAUR 2
OBJECT_ID      = 1963-047A
CENTER_NAME    = EARTH
REF_FRAME      = TEME
TIME_SYSTEM    = UTC
MEAN_ELEMENT_THEORY = SGP/SGP4

EPOCH          = 2026-02-01T08:23:50.037216
MEAN_MOTION    = 14.11963836
ECCENTRICITY   = .05481384
INCLINATION    = 30.3541
RA_OF_ASC_NODE = 38.7092
ARG_OF_PERICENTER = 120.0677
MEAN_ANOMALY   = 245.5431

EPHEMERIS_TYPE = 0
CLASSIFICATION_TYPE = U
NORAD_CAT_ID   = 694
ELEMENT_SET_NO = 999
REV_AT_EPOCH   = 12648
BSTAR          = .14549739E-3
MEAN_MOTION_DOT = .128E-4
MEAN_MOTION_DDOT = 0

CCSDS_OMM_VERS = 2.0
CREATION_DATE  = 
ORIGINATOR     = 

OBJECT_NAME    = THOR AGENA D R/B
OBJECT_ID      = 1964-002A
CENTER_NAME    = EARTH
REF_FRAME      = TEME
TIME_SYSTEM    = UTC
MEAN_ELEMENT_THEORY = SGP/SGP4

EPOCH          = 2026-02-01T22:30:02.947968
MEAN_MOTION    = 14.33996517
ECCENTRICITY   = .00329664
INCLINATION    = 99.1226
RA_OF_ASC_NODE = 44.3288
ARG_OF_PERICENTER = 4.3670
MEAN_ANOMALY   = 355.7794

EPHEMERIS_TYPE = 0
CLASSIFICATION_TYPE = U
NORAD_CAT_ID   = 733
ELEMENT_SET_NO = 999
REV_AT_EPOCH   = 23317
BSTAR          = .10489838E-3
MEAN_MOTION_DOT = .246E-5
MEAN_MOTION_DDOT = 0

CCSDS_OMM_VERS = 2.0
CREATION_DATE  = 
ORIGINATOR     = 

OBJECT_NAME    = SL-3 R/B
OBJECT_ID      = 1964-053B
CENTER_NAME    = EARTH
REF_FRAME      = TEME
TIME_SYSTEM    = UTC
MEAN_ELEMENT_THEORY = SGP/SGP4

EPOCH          = 2026-02-01T13:23:48.403968
MEAN_MOTION    = 14.61328549
ECCENTRICITY   = .00778715
INCLINATION    = 65.0764
RA_OF_ASC_NODE = 77.1640
ARG_OF_PERICENTER = 303.7164
MEAN_ANOMALY   = 55.6530

EPHEMERIS_TYPE = 0
CLASSIFICATION_TYPE = U
NORAD_CAT_ID   = 877
ELEMENT_SET_NO = 999
REV_AT_EPOCH   = 26151
BSTAR          = .90156425E-4
MEAN_MOTION_DOT = .34E-5
MEAN_MOTION_DDOT = 0

CCSDS_OMM_VERS = 2.0
CREATION_DATE  = 
ORIGINATOR     = 

OBJECT_NAME    = SL-8 R/B
OBJECT_ID      = 1967-045B
CENTER_NAME    = EARTH
REF_FRAME      = TEME
TIME_SYSTEM    = UTC
MEAN_ELEMENT_THEORY = SGP/SGP4

EPOCH          = 2026-02-01T12:29:10.828608
MEAN_MOTION    = 14.45587751
ECCENTRICITY   = .00628962
INCLINATION    = 74.0098
RA_OF_ASC_NODE = 55.6362
ARG_OF_PERICENTER = 71.2384
MEAN_ANOMALY   = 289.5584

EPHEMERIS_TYPE = 0
CLASSIFICATION_TYPE = U
NORAD_CAT_ID   = 2802
ELEMENT_SET_NO = 999
REV_AT_EPOCH   = 8379
BSTAR          = .81512129E-4
MEAN_MOTION_DOT = .267E-5
MEAN_MOTION_DDOT = 0

CCSDS_OMM_VERS = 2.0
CREATION_DATE  = 
ORIGINATOR     = 

OBJECT_NAME    = SL-8 R/B
OBJECT_ID      = 1968-040B
CENTER_NAME    = EARTH
REF_FRAME      = TEME
TIME_SYSTEM    = UTC
MEAN_ELEMENT_THEORY = SGP/SGP4

EPOCH          = 2026-02-01T23:14:48.224544
MEAN_MOTION    = 15.02970617
ECCENTRICITY   = .00255917
INCLINATION    = 74.0306
RA_OF_ASC_NODE = 26.6641
ARG_OF_PERICENTER = 220.4137
MEAN_ANOMALY   = 139.5151

EPHEMERIS_TYPE = 0
CLASSIFICATION_TYPE = U
NORAD_CAT_ID   = 3230
ELEMENT_SET_NO = 999
REV_AT_EPOCH   = 8464
BSTAR          = .23616745E-3
MEAN_MOTION_DOT = .3156E-4
MEAN_MOTION_DDOT = 0

CCSDS_OMM_VERS = 2.0
CREATION_DATE  = 
ORIGINATOR     = 

OBJECT_NAME    = OAO 2
OBJECT_ID      = 1968-110A
CENTER_NAME    = EARTH
REF_FRAME      = TEME
TIME_SYSTEM    = UTC
MEAN_ELEMENT_THEORY = SGP/SGP4

EPOCH          = 2026-02-01T15:11:56.337216
MEAN_MOTION    = 14.47284013
ECCENTRICITY   = .00061373
INCLINATION    = 34.9931
RA_OF_ASC_NODE = 106.5292
ARG_OF_PERICENTER = 269.5788
MEAN_ANOMALY   = 90.4199

EPHEMERIS_TYPE = 0
CLASSIFICATION_TYPE = U
NORAD_CAT_ID   = 3597
ELEMENT_SET_NO = 999
REV_AT_EPOCH   = 1387
BSTAR          = .91392972E-4
MEAN_MOTION_DOT = .32E-5
MEAN_MOTION_DDOT = 0

CCSDS_OMM_VERS = 2.0
CREATION_DATE  = 
ORIGINATOR     = 

OBJECT_NAME    = ISIS 1
OBJECT_ID      = 1969-009A
CENTER_NAME    = EARTH
REF_FRAME      = TEME
TIME_SYSTEM    = UTC
MEAN_ELEMENT_THEORY = SGP/SGP4

EPOCH          = 2026-02-01T20:54:39.127680
MEAN_MOTION    = 11.30396085
ECCENTRICITY   = .17078701
INCLINATION    = 88.4549
RA_OF_ASC_NODE = 159.2114
ARG_OF_PERICENTER = 161.4335
MEAN_ANOMALY   = 205.7783

EPHEMERIS_TYPE = 0
CLASSIFICATION_TYPE = U
NORAD_CAT_ID   = 3669
ELEMENT_SET_NO = 999
REV_AT_EPOCH   = 34448
BSTAR          = .24373011E-3
MEAN_MOTION_DOT = .357E-5
MEAN_MOTION_DDOT = 0

CCSDS_OMM_VERS = 2.0
CREATION_DATE  = 
ORIGINATOR     = 

OBJECT_NAME    = SERT 2
OBJECT_ID      = 1970-009A
CENTER_NAME    = EARTH
REF_FRAME      = TEME
TIME_SYSTEM    = UTC
MEAN_ELEMENT_THEORY = SGP/SGP4

EPOCH          = 2026-02-01T20:05:53.532960
MEAN_MOTION    = 13.58725708
ECCENTRICITY   = .00039618
INCLINATION    = 99.2713
RA_OF_ASC_NODE = 337.9020
ARG_OF_PERICENTER = 255.8466
MEAN_ANOMALY   = 165.2128

EPHEMERIS_TYPE = 0
CLASSIFICATION_TYPE = U
NORAD_CAT_ID   = 4327
ELEMENT_SET_NO = 999
REV_AT_EPOCH   = 77502
BSTAR          = .58858332E-4
MEAN_MOTION_DOT = .2E-7
MEAN_MOTION_DDOT = 0

CCSDS_OMM_VERS = 2.0
CREATION_DATE  = 
ORIGINATOR     = 

OBJECT_NAME    = SL-3 R/B
OBJECT_ID      = 1971-028B
CENTER_NAME    = EARTH
REF_FRAME      = TEME
TIME_SYSTEM    = UTC
MEAN_ELEMENT_THEORY = SGP/SGP4

EPOCH          = 2026-02-01T22:04:50.318112
MEAN_MOTION    = 15.58323591
ECCENTRICITY   = .00178072
INCLINATION    = 81.2367
RA_OF_ASC_NODE = 96.1180
ARG_OF_PERICENTER = 59.7681
MEAN_ANOMALY   = 300.5331

EPHEMERIS_TYPE = 0
CLASSIFICATION_TYPE = U
NORAD_CAT_ID   = 5118
ELEMENT_SET_NO = 999
REV_AT_EPOCH   = 98309
BSTAR          = .41071552E-3
MEAN_MOTION_DOT = .31468E-3
MEAN_MOTION_DDOT = 0

CCSDS_OMM_VERS = 2.0
CREATION_DATE  = 
ORIGINATOR     = 

OBJECT_NAME    = ASTEX 1
OBJECT_ID      = 1971-089A
CENTER_NAME    = EARTH
REF_FRAME      = TEME
TIME_SYSTEM    = UTC
MEAN_ELEMENT_THEORY = SGP/SGP4

EPOCH          = 2026-02-01T19:37:12.396576
MEAN_MOTION    = 14.50723788
ECCENTRICITY   = .00148708
INCLINATION    = 92.7155
RA_OF_ASC_NODE = 140.1527
ARG_OF_PERICENTER = 197.9380
MEAN_ANOMALY   = 162.1303

EPHEMERIS_TYPE = 0
CLASSIFICATION_TYPE = U
NORAD_CAT_ID   = 5560
ELEMENT_SET_NO = 999
REV_AT_EPOCH   = 85710
BSTAR          = .15008024E-3
MEAN_MOTION_DOT = .589E-5
MEAN_MOTION_DDOT = 0

CCSDS_OMM_VERS = 2.0
CREATION_DATE  = 
ORIGINATOR     = 

OBJECT_NAME    = SL-8 R/B
OBJECT_ID      = 1971-119B
CENTER_NAME    = EARTH
REF_FRAME      = TEME
TIME_SYSTEM    = UTC
MEAN_ELEMENT_THEORY = SGP/SGP4

EPOCH          = 2026-02-01T22:47:27.891168
MEAN_MOTION    = 14.36801961
ECCENTRICITY   = .05546595
INCLINATION    = 73.8850
RA_OF_ASC_NODE = 242.4742
ARG_OF_PERICENTER = 216.4225
MEAN_ANOMALY   = 139.7982

EPHEMERIS_TYPE = 0
CLASSIFICATION_TYPE = U
NORAD_CAT_ID   = 5730
ELEMENT_SET_NO = 999
REV_AT_EPOCH   = 65035
BSTAR          = .43354676E-3
MEAN_MOTION_DOT = .8331E-4
MEAN_MOTION_DDOT = 0

CCSDS_OMM_VERS = 2.0
CREATION_DATE  = 
ORIGINATOR     = 

OBJECT_NAME    = OAO 3 (COPERNICUS)
OBJECT_ID      = 1972-065A
CENTER_NAME    = EARTH
REF_FRAME      = TEME
TIME_SYSTEM    = UTC
MEAN_ELEMENT_THEORY = SGP/SGP4

EPOCH          = 2026-02-01T17:06:09.364032
MEAN_MOTION    = 14.59963569
ECCENTRICITY   = .00070353
INCLINATION    = 35.0048
RA_OF_ASC_NODE = 142.2844
ARG_OF_PERICENTER = 230.5202
MEAN_ANOMALY   = 278.9628

EPHEMERIS_TYPE = 0
CLASSIFICATION_TYPE = U
NORAD_CAT_ID   = 6153
ELEMENT_SET_NO = 999
REV_AT_EPOCH   = 84093
BSTAR          = .9315957E-4
MEAN_MOTION_DOT = .433E-5
MEAN_MOTION_DDOT = 0

